{
 "type": "FeatureCollection",
 "album": "NL2026",
 "page": "NL2026.html",
 "mediaDir": "NL2026",
 "features": [
  {
   "type": "Feature",
   "geometry": {
    "type": "Point",
    "coordinates": [
     4.2223252,
     52.0734734,
     42
    ]
   },
   "properties": {
    "album": "NL2026",
    "page": "NL2026.html",
    "file": "20260926_130012.jpg",
    "thumb": "media/thumbs/NL2026/20260926_130012.jpg",
    "small": "media/small/NL2026/20260926_130012.jpg",
    "large": "media/large/NL2026/20260926_130012.jpg",
    "date": "2026-09-26T13:00:12+02:00",
    "slide": 2
   }
  },
  {
   "type": "Feature",
   "geometry": {
    "type": "Point",
    "coordinates": [
     4.3551581,
     52.0136768,
     115
    ]
   },
   "properties": {
    "album": "NL2026",
    "page": "NL2026.html",
    "file": "20260926_193502.jpg",
    "thumb": "media/thumbs/NL2026/20260926_193502.jpg",
    "small": "media/small/NL2026/20260926_193502.jpg",
    "large": "media/large/NL2026/20260926_193502.jpg",
    "date": "2026-09-26T19:35:02+02:00",
    "slide": 3
   }
  },
  {
   "type": "Feature",
   "geometry": {
    "type": "Point",
    "coordinates": [
     4.3084978,
     52.0796823,
     48
    ]
   },
   "properties": {
    "album": "NL2026",
    "page": "NL2026.html",
    "file": "20260928_090859.jpg",
    "thumb": "media/thumbs/NL2026/20260928_090859.jpg",
    "small": "media/small/NL2026/20260928_090859.jpg",
    "large": "media/large/NL2026/20260928_090859.jpg",
    "date": "2026-09-27T10:24:59+02:00",
    "slide": 5
   }
  },
  {
   "type": "Feature",
   "geometry": {
    "type": "Point",
    "coordinates": [
     4.3118576,
     52.0794715,
     79
    ]
   },
   "properties": {
    "album": "NL2026",
    "page": "NL2026.html",
    "file": "20260927_103455.jpg",
    "thumb": "media/thumbs/NL2026/20260927_103455.jpg",
    "small": "media/small/NL2026/20260927_103455.jpg",
    "large": "media/large/NL2026/20260927_103455.jpg",
    "date": "2026-09-27T10:34:55+02:00",
    "slide": 7
   }
  },
  {
   "type": "Feature",
   "geometry": {
    "type": "Point",
    "coordinates": [
     4.3113685,
     52.0793694,
     81
    ]
   },
   "properties": {
    "album": "NL2026",
    "page": "NL2026.html",
    "file": "20260927_103945.jpg",
    "thumb": "media/thumbs/NL2026/20260927_103945.jpg",
    "small": "media/small/NL2026/20260927_103945.jpg",
    "large": "media/large/NL2026/20260927_103945.jpg",
    "date": "2026-09-27T10:39:45+02:00",
    "slide": 8
   }
  },
  {
   "type": "Feature",
   "geometry": {
    "type": "Point",
    "coordinates": [
     4.3110891,
     52.0791459,
     12
    ]
   },
   "properties": {
    "album": "NL2026",
    "page": "NL2026.html",
    "file": "20260927_104306.jpg",
    "thumb": "media/thumbs/NL2026/20260927_104306.jpg",
    "small": "media/small/NL2026/20260927_104306.jpg",
    "large": "media/large/NL2026/20260927_104306.jpg",
    "date": "2026-09-27T10:43:06+02:00",
    "slide": 9
   }
  },
  {
   "type": "Feature",
   "geometry": {
    "type": "Point",
    "coordinates": [
     4.3110135,
     52.0795745,
     35
    ]
   },
   "properties": {
    "album": "NL2026",
    "page": "NL2026.html",
    "file": "20260927_104736.jpg",
    "thumb": "media/thumbs/NL2026/20260927_104736.jpg",
    "small": "media/small/NL2026/20260927_104736.jpg",
    "large": "media/large/NL2026/20260927_104736.jpg",
    "date": "2026-09-27T10:47:36+02:00",
    "slide": 10
   }
  },
  {
   "type": "Feature",
   "geometry": {
    "type": "Point",
    "coordinates": [
     4.3137428,
     52.0825905,
     58
    ]
   },
   "properties": {
    "album": "NL2026",
    "page": "NL2026.html",
    "file": "20260927_105702.jpg",
    "thumb": "media/thumbs/NL2026/20260927_105702.jpg",
    "small": "media/small/NL2026/20260927_105702.jpg",
    "large": "media/large/NL2026/20260927_105702.jpg",
    "date": "2026-09-27T10:57:12+02:00",
    "slide": 11
   }
  },
  {
   "type": "Feature",
   "geometry": {
    "type": "Point",
    "coordinates": [
     4.3142752,
     52.0834073,
     57
    ]
   },
   "properties": {
    "album": "NL2026",
    "page": "NL2026.html",
    "file": "20260927_124555.jpg",
    "thumb": "media/thumbs/NL2026/20260927_124555.jpg",
    "small": "media/small/NL2026/20260927_124555.jpg",
    "large": "media/large/NL2026/20260927_124555.jpg",
    "date": "2026-09-27T12:45:55+02:00",
    "slide": 14
   }
  },
  {
   "type": "Feature",
   "geometry": {
    "type": "Point",
    "coordinates": [
     4.3142239,
     52.0835113,
     53
    ]
   },
   "properties": {
    "album": "NL2026",
    "page": "NL2026.html",
    "file": "20260927_125706.jpg",
    "thumb": "media/thumbs/NL2026/20260927_125706.jpg",
    "small": "media/small/NL2026/20260927_125706.jpg",
    "large": "media/large/NL2026/20260927_125706.jpg",
    "date": "2026-09-27T12:57:05+02:00",
    "slide": 16
   }
  },
  {
   "type": "Feature",
   "geometry": {
    "type": "Point",
    "coordinates": [
     4.2768328,
     52.1136212,
     37
    ]
   },
   "properties": {
    "album": "NL2026",
    "page": "NL2026.html",
    "file": "20260927_184429.jpg",
    "thumb": "media/thumbs/NL2026/20260927_184429.jpg",
    "small": "media/small/NL2026/20260927_184429.jpg",
    "large": "media/large/NL2026/20260927_184429.jpg",
    "date": "2026-09-27T18:44:50+02:00",
    "slide": 17
   }
  },
  {
   "type": "Feature",
   "geometry": {
    "type": "Point",
    "coordinates": [
     4.2780528,
     52.111877,
     80
    ]
   },
   "properties": {
    "album": "NL2026",
    "page": "NL2026.html",
    "file": "20260927_190129.jpg",
    "thumb": "media/thumbs/NL2026/20260927_190129.jpg",
    "small": "media/small/NL2026/20260927_190129.jpg",
    "large": "media/large/NL2026/20260927_190129.jpg",
    "date": "2026-09-27T19:01:29+02:00",
    "slide": 18
   }
  },
  {
   "type": "Feature",
   "geometry": {
    "type": "Point",
    "coordinates": [
     4.2783131,
     52.11167,
     37
    ]
   },
   "properties": {
    "album": "NL2026",
    "page": "NL2026.html",
    "file": "20260927_190229.jpg",
    "thumb": "media/thumbs/NL2026/20260927_190229.jpg",
    "small": "media/small/NL2026/20260927_190229.jpg",
    "large": "media/large/NL2026/20260927_190229.jpg",
    "date": "2026-09-27T19:02:30+02:00",
    "slide": 19
   }
  },
  {
   "type": "Feature",
   "geometry": {
    "type": "Point",
    "coordinates": [
     4.2673697,
     52.1021161,
     51
    ]
   },
   "properties": {
    "album": "NL2026",
    "page": "NL2026.html",
    "file": "20260927_194343.jpg",
    "thumb": "media/thumbs/NL2026/20260927_194343.jpg",
    "small": "media/small/NL2026/20260927_194343.jpg",
    "large": "media/large/NL2026/20260927_194343.jpg",
    "date": "2026-09-27T19:43:43+02:00",
    "slide": 20
   }
  }
 ]
}
